[{"OBJECT_NAME":"STARLINK-4692","OBJECT_ID":"2022-104R","EPOCH":"2026-03-09T18:18:04.244832","MEAN_MOTION":15.08840597,"ECCENTRICITY":0.0001328,"INCLINATION":53.2164,"RA_OF_ASC_NODE":238.9696,"ARG_OF_PERICENTER":85.9197,"MEAN_ANOMALY":274.1947,"EPHEMERIS_TYPE":0,"CLASSIFICATION_TYPE":"U","NORAD_CAT_ID":53603,"ELEMENT_SET_NO":999,"REV_AT_EPOCH":19569,"BSTAR":-9.6908462e-5,"MEAN_MOTION_DOT":-1.83e-5,"MEAN_MOTION_DDOT":0},{"OBJECT_NAME":"KSLV-II R\/B","OBJECT_ID":"2025-274P","EPOCH":"2026-03-09T17:44:44.185056","MEAN_MOTION":14.98166503,"ECCENTRICITY":0.00605567,"INCLINATION":97.7452,"RA_OF_ASC_NODE":0.3618,"ARG_OF_PERICENTER":19.961,"MEAN_ANOMALY":340.3962,"EPHEMERIS_TYPE":0,"CLASSIFICATION_TYPE":"U","NORAD_CAT_ID":66663,"ELEMENT_SET_NO":999,"REV_AT_EPOCH":1543,"BSTAR":0.00059831331,"MEAN_MOTION_DOT":7.309e-5,"MEAN_MOTION_DDOT":0}]
